{"fetched_at":"2026-07-12T17:32:27.314Z","source":"https://celestrak.org/NORAD/elements/gp.php?GROUP=spire&FORMAT=JSON","constellation":"spire","records":[{"OBJECT_NAME":"LEMUR-1","OBJECT_ID":"2014-033AL","EPOCH":"2026-07-11T21:11:51.417600","CLASSIFICATION_TYPE":"U","MEAN_MOTION":14.85331099,"ECCENTRICITY":0.0048047,"INCLINATION":97.7903,"RA_OF_ASC_NODE":342.1444,"ARG_OF_PERICENTER":358.865,"MEAN_ANOMALY":1.2448,"EPHEMERIS_TYPE":0,"NORAD_CAT_ID":40044,"ELEMENT_SET_NO":999,"REV_AT_EPOCH":64913,"BSTAR":0.00010759,"MEAN_MOTION_DOT":0.00000888,"MEAN_MOTION_DDOT":0},{"OBJECT_NAME":"LEMUR-2-GREENBERG","OBJECT_ID":"2017-042N","EPOCH":"2026-07-09T11:53:19.376160","CLASSIFICATION_TYPE":"U","MEAN_MOTION":15.32031511,"ECCENTRICITY":0.00071356,"INCLINATION":97.3831,"RA_OF_ASC_NODE":11.0293,"ARG_OF_PERICENTER":283.6729,"MEAN_ANOMALY":76.3718,"EPHEMERIS_TYPE":0,"NORAD_CAT_ID":42837,"ELEMENT_SET_NO":999,"REV_AT_EPOCH":49180,"BSTAR":0.0003749711,"MEAN_MOTION_DOT":0.00011532,"MEAN_MOTION_DDOT":0},{"OBJECT_NAME":"LEMUR-2-ANDIS","OBJECT_ID":"2017-042P","EPOCH":"2026-07-12T11:15:38.397024","CLASSIFICATION_TYPE":"U","MEAN_MOTION":15.35849981,"ECCENTRICITY":0.0007132,"INCLINATION":97.3674,"RA_OF_ASC_NODE":14.2674,"ARG_OF_PERICENTER":269.8003,"MEAN_ANOMALY":90.2423,"EPHEMERIS_TYPE":0,"NORAD_CAT_ID":42838,"ELEMENT_SET_NO":999,"REV_AT_EPOCH":49233,"BSTAR":0.0003692,"MEAN_MOTION_DOT":0.00012815,"MEAN_MOTION_DDOT":0},{"OBJECT_NAME":"LEMUR-2-MONSON","OBJECT_ID":"2017-042Q","EPOCH":"2026-07-10T11:15:45.883584","CLASSIFICATION_TYPE":"U","MEAN_MOTION":15.28674858,"ECCENTRICITY":0.00051568,"INCLINATION":97.4089,"RA_OF_ASC_NODE":11.9359,"ARG_OF_PERICENTER":266.7916,"MEAN_ANOMALY":93.2733,"EPHEMERIS_TYPE":0,"NORAD_CAT_ID":42839,"ELEMENT_SET_NO":999,"REV_AT_EPOCH":49172,"BSTAR":0.00034676682,"MEAN_MOTION_DOT":0.000096,"MEAN_MOTION_DDOT":0},{"OBJECT_NAME":"LEMUR-2-FURIAUS","OBJECT_ID":"2017-042R","EPOCH":"2026-07-12T10:41:36.676896","CLASSIFICATION_TYPE":"U","MEAN_MOTION":15.31072029,"ECCENTRICITY":0.000624,"INCLINATION":97.3775,"RA_OF_ASC_NODE":11.8672,"ARG_OF_PERICENTER":340.6601,"MEAN_ANOMALY":19.4403,"EPHEMERIS_TYPE":0,"NORAD_CAT_ID":42840,"ELEMENT_SET_NO":999,"REV_AT_EPOCH":49207,"BSTAR":0.00035675,"MEAN_MOTION_DOT":0.00010642,"MEAN_MOTION_DDOT":0},{"OBJECT_NAME":"LEMUR-2-PETERG","OBJECT_ID":"2017-042S","EPOCH":"2026-07-12T12:48:29.761056","CLASSIFICATION_TYPE":"U","MEAN_MOTION":15.34964403,"ECCENTRICITY":0.0003126,"INCLINATION":97.399,"RA_OF_ASC_NODE":18.6251,"ARG_OF_PERICENTER":231.812,"MEAN_ANOMALY":128.2842,"EPHEMERIS_TYPE":0,"NORAD_CAT_ID":42841,"ELEMENT_SET_NO":999,"REV_AT_EPOCH":49232,"BSTAR":0.00038171,"MEAN_MOTION_DOT":0.00012874,"MEAN_MOTION_DDOT":0},{"OBJECT_NAME":"LEMUR-2-DEMBITZ","OBJECT_ID":"2017-042T","EPOCH":"2026-07-12T11:09:59.302080","CLASSIFICATION_TYPE":"U","MEAN_MOTION":15.31053389,"ECCENTRICITY":0.0005082,"INCLINATION":97.3821,"RA_OF_ASC_NODE":14.9283,"ARG_OF_PERICENTER":286.7424,"MEAN_ANOMALY":73.326,"EPHEMERIS_TYPE":0,"NORAD_CAT_ID":42842,"ELEMENT_SET_NO":999,"REV_AT_EPOCH":49221,"BSTAR":0.00033095,"MEAN_MOTION_DOT":0.00009858,"MEAN_MOTION_DDOT":0},{"OBJECT_NAME":"LEMUR-2-ZACHARY","OBJECT_ID":"2017-042W","EPOCH":"2026-07-12T11:22:55.117056","CLASSIFICATION_TYPE":"U","MEAN_MOTION":15.52533793,"ECCENTRICITY":0.000246,"INCLINATION":97.3575,"RA_OF_ASC_NODE":25.6887,"ARG_OF_PERICENTER":261.6834,"MEAN_ANOMALY":98.414,"EPHEMERIS_TYPE":0,"NORAD_CAT_ID":42845,"ELEMENT_SET_NO":999,"REV_AT_EPOCH":49312,"BSTAR":0.0005209,"MEAN_MOTION_DOT":0.00031926,"MEAN_MOTION_DDOT":0},{"OBJECT_NAME":"LEMUR-2-AMANDA-SVANTE","OBJECT_ID":"2021-034B","EPOCH":"2026-07-11T22:23:01.371264","CLASSIFICATION_TYPE":"U","MEAN_MOTION":15.35822625,"ECCENTRICITY":0.0004497,"INCLINATION":97.5758,"RA_OF_ASC_NODE":271.8961,"ARG_OF_PERICENTER":151.4014,"MEAN_ANOMALY":208.7477,"EPHEMERIS_TYPE":0,"NORAD_CAT_ID":48269,"ELEMENT_SET_NO":999,"REV_AT_EPOCH":28485,"BSTAR":0.00060136,"MEAN_MOTION_DOT":0.00020915,"MEAN_MOTION_DDOT":0},{"OBJECT_NAME":"LEMUR-2-SPECIAL-K","OBJECT_ID":"2021-034F","EPOCH":"2026-07-12T05:15:01.611360","CLASSIFICATION_TYPE":"U","MEAN_MOTION":15.73622953,"ECCENTRICITY":0.00063244,"INCLINATION":97.5632,"RA_OF_ASC_NODE":282.0516,"ARG_OF_PERICENTER":216.8117,"MEAN_ANOMALY":143.2713,"EPHEMERIS_TYPE":0,"NORAD_CAT_ID":48273,"ELEMENT_SET_NO":999,"REV_AT_EPOCH":28561,"BSTAR":0.0012138298,"MEAN_MOTION_DOT":0.00172789,"MEAN_MOTION_DDOT":0},{"OBJECT_NAME":"LEMUR-2-EMBRIONOVIS","OBJECT_ID":"2023-084AQ","EPOCH":"2026-07-12T09:11:06.054144","CLASSIFICATION_TYPE":"U","MEAN_MOTION":15.38181247,"ECCENTRICITY":0.0008065,"INCLINATION":97.631,"RA_OF_ASC_NODE":338.5644,"ARG_OF_PERICENTER":217.3745,"MEAN_ANOMALY":142.6939,"EPHEMERIS_TYPE":0,"NORAD_CAT_ID":56970,"ELEMENT_SET_NO":999,"REV_AT_EPOCH":17155,"BSTAR":0.00022271,"MEAN_MOTION_DOT":0.00008294,"MEAN_MOTION_DDOT":0},{"OBJECT_NAME":"LEMUR-2-DEVERILL-M-T","OBJECT_ID":"2023-100F","EPOCH":"2026-07-12T02:44:23.176896","CLASSIFICATION_TYPE":"U","MEAN_MOTION":15.40988276,"ECCENTRICITY":0.00047854,"INCLINATION":99.4465,"RA_OF_ASC_NODE":239.0952,"ARG_OF_PERICENTER":309.8311,"MEAN_ANOMALY":50.2507,"EPHEMERIS_TYPE":0,"NORAD_CAT_ID":57391,"ELEMENT_SET_NO":999,"REV_AT_EPOCH":16508,"BSTAR":0.00039345739,"MEAN_MOTION_DOT":0.00016119,"MEAN_MOTION_DDOT":0},{"OBJECT_NAME":"LEMUR-2-BASS","OBJECT_ID":"2023-174D","EPOCH":"2026-07-12T11:50:57.012288","CLASSIFICATION_TYPE":"U","MEAN_MOTION":15.43934169,"ECCENTRICITY":0.0007777,"INCLINATION":97.385,"RA_OF_ASC_NODE":278.573,"ARG_OF_PERICENTER":86.2691,"MEAN_ANOMALY":273.9446,"EPHEMERIS_TYPE":0,"NORAD_CAT_ID":58259,"ELEMENT_SET_NO":999,"REV_AT_EPOCH":14926,"BSTAR":0.00025737,"MEAN_MOTION_DOT":0.0001163,"MEAN_MOTION_DDOT":0},{"OBJECT_NAME":"LEMUR-2-JK0903EM1407","OBJECT_ID":"2023-174CJ","EPOCH":"2026-07-11T23:04:50.737440","CLASSIFICATION_TYPE":"U","MEAN_MOTION":15.52951542,"ECCENTRICITY":0.00039286,"INCLINATION":97.3924,"RA_OF_ASC_NODE":284.152,"ARG_OF_PERICENTER":44.23,"MEAN_ANOMALY":315.9266,"EPHEMERIS_TYPE":0,"NORAD_CAT_ID":58336,"ELEMENT_SET_NO":999,"REV_AT_EPOCH":14957,"BSTAR":0.00028285667,"MEAN_MOTION_DOT":0.00017525,"MEAN_MOTION_DDOT":0},{"OBJECT_NAME":"LEMUR-2-MJR092620","OBJECT_ID":"2023-174CN","EPOCH":"2026-07-12T13:00:19.871424","CLASSIFICATION_TYPE":"U","MEAN_MOTION":15.45798027,"ECCENTRICITY":0.0005549,"INCLINATION":97.3981,"RA_OF_ASC_NODE":284.0533,"ARG_OF_PERICENTER":38.9821,"MEAN_ANOMALY":321.1827,"EPHEMERIS_TYPE":0,"NORAD_CAT_ID":58340,"ELEMENT_SET_NO":999,"REV_AT_EPOCH":14956,"BSTAR":0.0002709,"MEAN_MOTION_DOT":0.00013044,"MEAN_MOTION_DDOT":0},{"OBJECT_NAME":"LEMUR-2-NIMBUS2000","OBJECT_ID":"2024-022A","EPOCH":"2026-07-12T12:59:35.499840","CLASSIFICATION_TYPE":"U","MEAN_MOTION":15.41041214,"ECCENTRICITY":0.0009027,"INCLINATION":97.4088,"RA_OF_ASC_NODE":43.8762,"ARG_OF_PERICENTER":37.5068,"MEAN_ANOMALY":322.6807,"EPHEMERIS_TYPE":0,"NORAD_CAT_ID":58899,"ELEMENT_SET_NO":999,"REV_AT_EPOCH":13617,"BSTAR":0.00035694,"MEAN_MOTION_DOT":0.00014682,"MEAN_MOTION_DDOT":0}]}
